[
  {
    "OBJECT_NAME": "YAOGAN-27",
    "OBJECT_ID": "2015-040A",
    "EPOCH": "2025-06-07T20:25:55.855488",
    "MEAN_MOTION": 13.16049472,
    "ECCENTRICITY": 0.0008314,
    "INCLINATION": 100.0862,
    "RA_OF_ASC_NODE": 157.0501,
    "ARG_OF_PERICENTER": 4.2964,
    "MEAN_ANOMALY": 355.822,
    "EPHEMERIS_TYPE": 0,
    "CLASSIFICATION_TYPE": "U",
    "NORAD_CAT_ID": 40878,
    "ELEMENT_SET_NO": 999,
    "REV_AT_EPOCH": 46993,
    "BSTAR": 4.0589e-05,
    "MEAN_MOTION_DOT": -2.7e-07,
    "MEAN_MOTION_DDOT": 0
  },
  {
    "OBJECT_NAME": "GAOFEN-9 01",
    "OBJECT_ID": "2015-047A",
    "EPOCH": "2025-06-07T20:11:32.684928",
    "MEAN_MOTION": 14.81861385,
    "ECCENTRICITY": 0.0026399,
    "INCLINATION": 97.6773,
    "RA_OF_ASC_NODE": 205.6576,
    "ARG_OF_PERICENTER": 287.9905,
    "MEAN_ANOMALY": 71.8432,
    "EPHEMERIS_TYPE": 0,
    "CLASSIFICATION_TYPE": "U",
    "NORAD_CAT_ID": 40894,
    "ELEMENT_SET_NO": 999,
    "REV_AT_EPOCH": 52473,
    "BSTAR": 0.00011575,
    "MEAN_MOTION_DOT": 8.69e-06,
    "MEAN_MOTION_DDOT": 0
  },
  {
    "OBJECT_NAME": "LAPAN-A2",
    "OBJECT_ID": "2015-052B",
    "EPOCH": "2025-05-31T04:27:33.271200",
    "MEAN_MOTION": 14.7880593,
    "ECCENTRICITY": 0.0012733,
    "INCLINATION": 6.0006,
    "RA_OF_ASC_NODE": 24.0987,
    "ARG_OF_PERICENTER": 338.8432,
    "MEAN_ANOMALY": 21.1169,
    "EPHEMERIS_TYPE": 0,
    "CLASSIFICATION_TYPE": "U",
    "NORAD_CAT_ID": 40931,
    "ELEMENT_SET_NO": 999,
    "REV_AT_EPOCH": 52304,
    "BSTAR": 7.8118e-05,
    "MEAN_MOTION_DOT": 1.241e-05,
    "MEAN_MOTION_DDOT": 0
  },
  {
    "OBJECT_NAME": "YAOGAN-28",
    "OBJECT_ID": "2015-064A",
    "EPOCH": "2025-06-07T21:05:48.912576",
    "MEAN_MOTION": 15.23422862,
    "ECCENTRICITY": 0.0015369,
    "INCLINATION": 97.2569,
    "RA_OF_ASC_NODE": 302.4737,
    "ARG_OF_PERICENTER": 55.4601,
    "MEAN_ANOMALY": 304.8085,
    "EPHEMERIS_TYPE": 0,
    "CLASSIFICATION_TYPE": "U",
    "NORAD_CAT_ID": 41026,
    "ELEMENT_SET_NO": 999,
    "REV_AT_EPOCH": 53364,
    "BSTAR": 0.00026802,
    "MEAN_MOTION_DOT": 6.334e-05,
    "MEAN_MOTION_DDOT": 0
  },
  {
    "OBJECT_NAME": "YAOGAN-29",
    "OBJECT_ID": "2015-069A",
    "EPOCH": "2025-06-07T19:26:18.249216",
    "MEAN_MOTION": 14.82634858,
    "ECCENTRICITY": 0.0002447,
    "INCLINATION": 98.0343,
    "RA_OF_ASC_NODE": 181.1852,
    "ARG_OF_PERICENTER": 126.4786,
    "MEAN_ANOMALY": 233.6653,
    "EPHEMERIS_TYPE": 0,
    "CLASSIFICATION_TYPE": "U",
    "NORAD_CAT_ID": 41038,
    "ELEMENT_SET_NO": 999,
    "REV_AT_EPOCH": 51514,
    "BSTAR": 5.5708e-05,
    "MEAN_MOTION_DOT": 3.94e-06,
    "MEAN_MOTION_DDOT": 0
  },
  {
    "OBJECT_NAME": "KENT RIDGE 1",
    "OBJECT_ID": "2015-077B",
    "EPOCH": "2025-06-07T15:42:31.909536",
    "MEAN_MOTION": 15.19967312,
    "ECCENTRICITY": 0.0008937,
    "INCLINATION": 14.9783,
    "RA_OF_ASC_NODE": 164.6265,
    "ARG_OF_PERICENTER": 6.3471,
    "MEAN_ANOMALY": 353.6963,
    "EPHEMERIS_TYPE": 0,
    "CLASSIFICATION_TYPE": "U",
    "NORAD_CAT_ID": 41167,
    "ELEMENT_SET_NO": 999,
    "REV_AT_EPOCH": 52410,
    "BSTAR": 0.00011887,
    "MEAN_MOTION_DOT": 3.373e-05,
    "MEAN_MOTION_DDOT": 0
  },
  {
    "OBJECT_NAME": "TELEOS-1",
    "OBJECT_ID": "2015-077D",
    "EPOCH": "2025-06-07T14:27:46.039680",
    "MEAN_MOTION": 15.94482517,
    "ECCENTRICITY": 0.0003981,
    "INCLINATION": 14.9757,
    "RA_OF_ASC_NODE": 297.0967,
    "ARG_OF_PERICENTER": 57.5112,
    "MEAN_ANOMALY": 302.5604,
    "EPHEMERIS_TYPE": 0,
    "CLASSIFICATION_TYPE": "U",
    "NORAD_CAT_ID": 41169,
    "ELEMENT_SET_NO": 999,
    "REV_AT_EPOCH": 52610,
    "BSTAR": 0.00093993,
    "MEAN_MOTION_DOT": 0.00385578,
    "MEAN_MOTION_DDOT": 2.8479e-05
  },
  {
    "OBJECT_NAME": "GAOFEN-4",
    "OBJECT_ID": "2015-083A",
    "EPOCH": "2025-06-07T14:29:11.454720",
    "MEAN_MOTION": 1.00275858,
    "ECCENTRICITY": 9.72e-05,
    "INCLINATION": 0.0394,
    "RA_OF_ASC_NODE": 267.2501,
    "ARG_OF_PERICENTER": 159.619,
    "MEAN_ANOMALY": 152.3176,
    "EPHEMERIS_TYPE": 0,
    "CLASSIFICATION_TYPE": "U",
    "NORAD_CAT_ID": 41194,
    "ELEMENT_SET_NO": 999,
    "REV_AT_EPOCH": 3477,
    "BSTAR": 0,
    "MEAN_MOTION_DOT": -3.18e-06,
    "MEAN_MOTION_DDOT": 0
  },
  {
    "OBJECT_NAME": "JASON-3",
    "OBJECT_ID": "2016-002A",
    "EPOCH": "2025-06-04T23:29:52.467936",
    "MEAN_MOTION": 12.8221566,
    "ECCENTRICITY": 0.0009371,
    "INCLINATION": 66.0399,
    "RA_OF_ASC_NODE": 198.8119,
    "ARG_OF_PERICENTER": 237.1033,
    "MEAN_ANOMALY": 122.9081,
    "EPHEMERIS_TYPE": 0,
    "CLASSIFICATION_TYPE": "U",
    "NORAD_CAT_ID": 41240,
    "ELEMENT_SET_NO": 999,
    "REV_AT_EPOCH": 43868,
    "BSTAR": 8.1257e-05,
    "MEAN_MOTION_DOT": -4.2e-07,
    "MEAN_MOTION_DDOT": 0
  },
  {
    "OBJECT_NAME": "SENTINEL-3A",
    "OBJECT_ID": "2016-011A",
    "EPOCH": "2025-06-07T20:43:02.416224",
    "MEAN_MOTION": 14.26740711,
    "ECCENTRICITY": 0.0001339,
    "INCLINATION": 98.6255,
    "RA_OF_ASC_NODE": 226.5865,
    "ARG_OF_PERICENTER": 108.5463,
    "MEAN_ANOMALY": 251.5863,
    "EPHEMERIS_TYPE": 0,
    "CLASSIFICATION_TYPE": "U",
    "NORAD_CAT_ID": 41335,
    "ELEMENT_SET_NO": 999,
    "REV_AT_EPOCH": 48468,
    "BSTAR": 5.927e-05,
    "MEAN_MOTION_DOT": 1e-06,
    "MEAN_MOTION_DDOT": 0
  },
  {
    "OBJECT_NAME": "ZIYUAN 3-2 (ZY 3-2)",
    "OBJECT_ID": "2016-033A",
    "EPOCH": "2025-06-07T20:50:57.181632",
    "MEAN_MOTION": 15.21414794,
    "ECCENTRICITY": 0.0009013,
    "INCLINATION": 97.4199,
    "RA_OF_ASC_NODE": 235.9365,
    "ARG_OF_PERICENTER": 164.4873,
    "MEAN_ANOMALY": 195.6641,
    "EPHEMERIS_TYPE": 0,
    "CLASSIFICATION_TYPE": "U",
    "NORAD_CAT_ID": 41556,
    "ELEMENT_SET_NO": 999,
    "REV_AT_EPOCH": 50107,
    "BSTAR": 0.00024008,
    "MEAN_MOTION_DOT": 5.325e-05,
    "MEAN_MOTION_DDOT": 0
  },
  {
    "OBJECT_NAME": "CARTOSAT-2C",
    "OBJECT_ID": "2016-040A",
    "EPOCH": "2025-06-07T19:43:07.455648",
    "MEAN_MOTION": 15.19223105,
    "ECCENTRICITY": 0.0011477,
    "INCLINATION": 97.4229,
    "RA_OF_ASC_NODE": 219.0162,
    "ARG_OF_PERICENTER": 1.6731,
    "MEAN_ANOMALY": 358.4539,
    "EPHEMERIS_TYPE": 0,
    "CLASSIFICATION_TYPE": "U",
    "NORAD_CAT_ID": 41599,
    "ELEMENT_SET_NO": 999,
    "REV_AT_EPOCH": 49687,
    "BSTAR": 0.00019134,
    "MEAN_MOTION_DOT": 3.967e-05,
    "MEAN_MOTION_DDOT": 0
  },
  {
    "OBJECT_NAME": "SKYSAT-C1",
    "OBJECT_ID": "2016-040C",
    "EPOCH": "2025-06-07T13:27:30.987648",
    "MEAN_MOTION": 15.29840845,
    "ECCENTRICITY": 0.0003653,
    "INCLINATION": 97.0064,
    "RA_OF_ASC_NODE": 206.3618,
    "ARG_OF_PERICENTER": 93.1164,
    "MEAN_ANOMALY": 267.0495,
    "EPHEMERIS_TYPE": 0,
    "CLASSIFICATION_TYPE": "U",
    "NORAD_CAT_ID": 41601,
    "ELEMENT_SET_NO": 999,
    "REV_AT_EPOCH": 50049,
    "BSTAR": 0.00023123,
    "MEAN_MOTION_DOT": 6.613e-05,
    "MEAN_MOTION_DDOT": 0
  },
  {
    "OBJECT_NAME": "LAPAN-A3",
    "OBJECT_ID": "2016-040E",
    "EPOCH": "2025-06-07T20:46:05.439072",
    "MEAN_MOTION": 15.29847427,
    "ECCENTRICITY": 0.0009054,
    "INCLINATION": 97.1364,
    "RA_OF_ASC_NODE": 163.5402,
    "ARG_OF_PERICENTER": 276.8351,
    "MEAN_ANOMALY": 83.186,
    "EPHEMERIS_TYPE": 0,
    "CLASSIFICATION_TYPE": "U",
    "NORAD_CAT_ID": 41603,
    "ELEMENT_SET_NO": 999,
    "REV_AT_EPOCH": 49752,
    "BSTAR": 9.3919e-05,
    "MEAN_MOTION_DOT": 2.645e-05,
    "MEAN_MOTION_DDOT": 0
  }
]