40878,YAOGAN-27,2015,109.42,-1.0,+,100.09,Active,1,LEO,PRC,China,Military,Earth Observation,Long March,1 40878U 15040A   25158.85134092 -.00000027  00000+0  40589-4 0  9999,2 40878 100.0862 157.0501 0008314   4.2964 355.8220 13.16049472469939,13.16049472,0.0008314,LEO
40894,GAOFEN-9 01,2015,97.18,1000.0,+,97.68,Active,1,LEO,PRC,China,Government,Earth Observation,Long March,1 40894U 15047A   25158.84135052  .00000869  00000+0  11575-3 0  9995,2 40894  97.6773 205.6576 0026399 287.9905  71.8432 14.81861385524737,14.81861385,0.0026399,LEO
40931,LAPAN-A2,2015,97.38,68.0,+,6.0,Active,1,LEO,India,Indonesia,Government,Earth Observation,PSLV,1 40931U 15052B   25151.18580175  .00001241  00000+0  78118-4 0  9995,2 40931   6.0006  24.0987 0012733 338.8432  21.1169 14.78805930523047,14.7880593,0.0012733,LEO
41026,YAOGAN-28,2015,94.52,1040.0,+,97.26,Active,1,LEO,PRC,China,Military,Earth Observation,Long March,1 41026U 15064A   25158.87903834  .00006334  00000+0  26802-3 0  9998,2 41026  97.2569 302.4737 0015369  55.4601 304.8085 15.23422862533648,15.23422862,0.0015369,LEO
41038,YAOGAN-29,2015,97.12,1040.0,+,98.03,Active,1,LEO,PRC,China,Military,Earth Observation,Long March,1 41038U 15069A   25158.80993344  .00000394  00000+0  55708-4 0  9992,2 41038  98.0343 181.1852 0002447 126.4786 233.6653 14.82634858515145,14.82634858,0.0002447,LEO
41167,KENT RIDGE 1,2015,94.74,78.0,+,14.98,Active,1,LEO,India,Singapore,Civil,Earth Observation,PSLV,1 41167U 15077B   25158.65453599  .00003373  00000+0  11887-3 0  9999,2 41167  14.9783 164.6265 0008937   6.3471 353.6963 15.19967312524102,15.19967312,0.0008937,LEO
41169,TELEOS-1,2015,90.34,400.0,+,14.98,Active,1,LEO,India,Singapore,Commercial,Earth Observation,PSLV,1 41169U 15077D   25158.60261620  .00385578  28479-4  93993-3 0  9991,2 41169  14.9757 297.0967 0003981  57.5112 302.5604 15.94482517526108,15.94482517,0.0003981,LEO
41194,GAOFEN-4,2015,1436.04,4600.0,+,0.04,Active,1,GSO,PRC,China,Government,Earth Observation,Long March,1 41194U 15083A   25158.60360480 -.00000318  00000+0  00000+0 0  9995,2 41194   0.0394 267.2501 0000972 159.6190 152.3176  1.00275858 34771,1.00275858,9.72e-05,GEO
41240,JASON-3,2016,112.31,553.0,+,66.04,Active,1,LEO,USA,USA,Government,Earth Observation,Falcon,1 41240U 16002A   25155.97907949 -.00000042  00000+0  81257-4 0  9995,2 41240  66.0399 198.8119 0009371 237.1033 122.9081 12.82215660438687,12.8221566,0.0009371,LEO
41335,SENTINEL-3A,2016,100.93,2300.0,+,98.63,Active,1,LEO,Russia,ESA,Government,Earth Observation,Rokot,1 41335U 16011A   25158.86322241  .00000100  00000+0  59270-4 0  9991,2 41335  98.6255 226.5865 0001339 108.5463 251.5863 14.26740711484683,14.26740711,0.0001339,LEO
41556,ZIYUAN 3-2 (ZY 3-2),2016,94.65,2630.0,+,97.42,Active,1,LEO,PRC,China,Government,Earth Observation,Long March,1 41556U 16033A   25158.86871738  .00005325  00000+0  24008-3 0  9994,2 41556  97.4199 235.9365 0009013 164.4873 195.6641 15.21414794501074,15.21414794,0.0009013,LEO
41599,CARTOSAT-2C,2016,94.79,727.0,+,97.42,Active,1,LEO,India,India,Government,Earth Observation,PSLV,1 41599U 16040A   25158.82161407  .00003967  00000+0  19134-3 0  9994,2 41599  97.4229 219.0162 0011477   1.6731 358.4539 15.19223105496872,15.19223105,0.0011477,LEO
41601,SKYSAT-C1,2016,94.13,110.0,+,97.01,Active,1,LEO,India,USA,Commercial,Earth Observation,PSLV,1 41601U 16040C   25158.56077532  .00006613  00000+0  23123-3 0  9998,2 41601  97.0064 206.3618 0003653  93.1164 267.0495 15.29840845500494,15.29840845,0.0003653,LEO
41603,LAPAN-A3,2016,94.13,115.0,+,97.14,Active,1,LEO,India,Indonesia,Government,Earth Observation,PSLV,1 41603U 16040E   25158.86534073  .00002645  00000+0  93919-4 0  9993,2 41603  97.1364 163.5402 0009054 276.8351  83.1860 15.29847427497529,15.29847427,0.0009054,LEO
